STARLINK-5873           
1 56490U 23064AU  26068.52191880 -.00000364  00000+0 -22748-4 0  9996
2 56490  69.9993 105.0315 0003159 267.7061  92.3736 14.98330535156208
UM5-RIBAT               
1 60554U 24149CQ  26068.79561721  .00004725  00000+0  37993-3 0  9991
2 60554  97.6776 147.9138 0003272  87.0399 273.1199 15.00468196 85282
